[{"OBJECT_NAME":"STARLINK-35798","OBJECT_ID":"2025-247AD","EPOCH":"2026-03-09T14:19:18.221952","MEAN_MOTION":15.3019642,"ECCENTRICITY":8.11e-5,"INCLINATION":53.16,"RA_OF_ASC_NODE":191.5694,"ARG_OF_PERICENTER":69.5956,"MEAN_ANOMALY":290.5132,"EPHEMERIS_TYPE":0,"CLASSIFICATION_TYPE":"U","NORAD_CAT_ID":66292,"ELEMENT_SET_NO":999,"REV_AT_EPOCH":2101,"BSTAR":0.00085285,"MEAN_MOTION_DOT":0.00024982,"MEAN_MOTION_DDOT":0},{"OBJECT_NAME":"TRANSPORTER-1 OBJECT M","OBJECT_ID":"2021-006M","EPOCH":"2026-03-09T22:05:37.843296","MEAN_MOTION":15.3227845,"ECCENTRICITY":0.00102759,"INCLINATION":97.2377,"RA_OF_ASC_NODE":116.7915,"ARG_OF_PERICENTER":187.5492,"MEAN_ANOMALY":172.5597,"EPHEMERIS_TYPE":0,"CLASSIFICATION_TYPE":"U","NORAD_CAT_ID":47424,"ELEMENT_SET_NO":999,"REV_AT_EPOCH":28439,"BSTAR":0.00023985652,"MEAN_MOTION_DOT":7.411e-5,"MEAN_MOTION_DDOT":0}]
